{
  "type": "FeatureCollection",
  "features": [
    {
      "type": "Feature",
      "properties": {
        "norad_id": 33860,
        "name": "IRIDIUM 33 DEB",
        "group": "iridium-33-debris",
        "lat": 70.61996447191497,
        "lon": -166.44168270017803,
        "alt_km": 665.9907614546164,
        "timestamp": "2025-12-20T05:41:50.415680+00:00",
        "meta_object_name": "IRIDIUM 33 DEB",
        "meta_object_id": "1997-051AD",
        "meta_epoch": "2025-12-19T13:32:43.473120",
        "meta_mean_motion": 14.67445483,
        "meta_eccentricity": 0.0006592,
        "meta_inclination": 86.3824,
        "meta_ra_of_asc_node": 24.2173,
        "meta_arg_of_pericenter": 332.2396,
        "meta_mean_anomaly": 183.725,
        "meta_ephemeris_type": 0,
        "meta_classification_type": "U",
        "meta_norad_cat_id": 33860,
        "meta_element_set_no": 999,
        "meta_rev_at_epoch": 88822,
        "meta_bstar": 0.0007628,
        "meta_mean_motion_dot": 4.339e-05,
        "meta_mean_motion_ddot": 0,
        "tle_line1": "1 33860U 97051AD  25353.56439205  .00004339  00000+0  76280-3 0  9998",
        "tle_line2": "2 33860  86.3824  24.2173 0006592 332.2396 183.7250 14.67445483888222"
      },
      "geometry": {
        "type": "Point",
        "coordinates": [
          -166.44168270017803,
          70.61996447191497
        ]
      }
    },
    {
      "type": "Feature",
      "properties": {
        "norad_id": 33862,
        "name": "IRIDIUM 33 DEB",
        "group": "iridium-33-debris",
        "lat": -21.747838588377117,
        "lon": -144.33990610121276,
        "alt_km": 702.2277685902254,
        "timestamp": "2025-12-20T05:41:50.415692+00:00",
        "meta_object_name": "IRIDIUM 33 DEB",
        "meta_object_id": "1997-051AF",
        "meta_epoch": "2025-12-19T04:34:26.830848",
        "meta_mean_motion": 14.69572736,
        "meta_eccentricity": 0.0052829,
        "meta_inclination": 86.4085,
        "meta_ra_of_asc_node": 34.686,
        "meta_arg_of_pericenter": 47.5905,
        "meta_mean_anomaly": 19.3889,
        "meta_ephemeris_type": 0,
        "meta_classification_type": "U",
        "meta_norad_cat_id": 33862,
        "meta_element_set_no": 999,
        "meta_rev_at_epoch": 88918,
        "meta_bstar": 0.00095208,
        "meta_mean_motion_dot": 5.8e-05,
        "meta_mean_motion_ddot": 0,
        "tle_line1": "1 33862U 97051AF  25353.19058832  .00005800  00000+0  95208-3 0  9997",
        "tle_line2": "2 33862  86.4085  34.6860 0052829  47.5905  19.3889 14.69572736889180"
      },
      "geometry": {
        "type": "Point",
        "coordinates": [
          -144.33990610121276,
          -21.747838588377117
        ]
      }
    },
    {
      "type": "Feature",
      "properties": {
        "norad_id": 33866,
        "name": "IRIDIUM 33 DEB",
        "group": "iridium-33-debris",
        "lat": 25.344667005901275,
        "lon": -91.89265273304952,
        "alt_km": 727.6567143253606,
        "timestamp": "2025-12-20T05:41:50.415704+00:00",
        "meta_object_name": "IRIDIUM 33 DEB",
        "meta_object_id": "1997-051AK",
        "meta_epoch": "2025-12-19T17:53:32.660160",
        "meta_mean_motion": 14.25294618,
        "meta_eccentricity": 0.01149326,
        "meta_inclination": 86.3,
        "meta_ra_of_asc_node": 90.0718,
        "meta_arg_of_pericenter": 139.1781,
        "meta_mean_anomaly": 12.6912,
        "meta_ephemeris_type": 0,
        "meta_classification_type": "U",
        "meta_norad_cat_id": 33866,
        "meta_element_set_no": 999,
        "meta_rev_at_epoch": 86910,
        "meta_bstar": 0.00039483092,
        "meta_mean_motion_dot": 1.015e-05,
        "meta_mean_motion_ddot": 0,
        "tle_line1": "1 33866U 97051AK  25353.74551690  .00001015  00000+0  39483-3 0  9999",
        "tle_line2": "2 33866  86.3000  90.0718 0114932 139.1781  12.6912 14.25294618869107"
      },
      "geometry": {
        "type": "Point",
        "coordinates": [
          -91.89265273304952,
          25.344667005901275
        ]
      }
    },
    {
      "type": "Feature",
      "properties": {
        "norad_id": 33867,
        "name": "IRIDIUM 33 DEB",
        "group": "iridium-33-debris",
        "lat": -86.04839918064907,
        "lon": -80.79285313152019,
        "alt_km": 334.8847891499154,
        "timestamp": "2025-12-20T05:41:50.415715+00:00",
        "meta_object_name": "IRIDIUM 33 DEB",
        "meta_object_id": "1997-051AL",
        "meta_epoch": "2025-12-19T05:47:32.215776",
        "meta_mean_motion": 15.81283525,
        "meta_eccentricity": 0.0013617,
        "meta_inclination": 86.3654,
        "meta_ra_of_asc_node": 346.6955,
        "meta_arg_of_pericenter": 94.4725,
        "meta_mean_anomaly": 265.8107,
        "meta_ephemeris_type": 0,
        "meta_classification_type": "U",
        "meta_norad_cat_id": 33867,
        "meta_element_set_no": 999,
        "meta_rev_at_epoch": 89613,
        "meta_bstar": 0.0071362,
        "meta_mean_motion_dot": 0.01596226,
        "meta_mean_motion_ddot": 0,
        "tle_line1": "1 33867U 97051AL  25353.24134509  .01596226  00000+0  71362-2 0  9996",
        "tle_line2": "2 33867  86.3654 346.6955 0013617  94.4725 265.8107 15.81283525896134"
      },
      "geometry": {
        "type": "Point",
        "coordinates": [
          -80.79285313152019,
          -86.04839918064907
        ]
      }
    },
    {
      "type": "Feature",
      "properties": {
        "norad_id": 33870,
        "name": "IRIDIUM 33 DEB",
        "group": "iridium-33-debris",
        "lat": 85.53414061895535,
        "lon": 109.32117698869175,
        "alt_km": 725.3483540840116,
        "timestamp": "2025-12-20T05:41:50.415726+00:00",
        "meta_object_name": "IRIDIUM 33 DEB",
        "meta_object_id": "1997-051AP",
        "meta_epoch": "2025-12-19T15:02:56.916960",
        "meta_mean_motion": 14.45884184,
        "meta_eccentricity": 0.00222,
        "meta_inclination": 86.3744,
        "meta_ra_of_asc_node": 55.309,
        "meta_arg_of_pericenter": 156.0284,
        "meta_mean_anomaly": 356.6919,
        "meta_ephemeris_type": 0,
        "meta_classification_type": "U",
        "meta_norad_cat_id": 33870,
        "meta_element_set_no": 999,
        "meta_rev_at_epoch": 88236,
        "meta_bstar": 0.00048894,
        "meta_mean_motion_dot": 1.762e-05,
        "meta_mean_motion_ddot": 0,
        "tle_line1": "1 33870U 97051AP  25353.62704765  .00001762  00000+0  48894-3 0  9999",
        "tle_line2": "2 33870  86.3744  55.3090 0022200 156.0284 356.6919 14.45884184882362"
      },
      "geometry": {
        "type": "Point",
        "coordinates": [
          109.32117698869175,
          85.53414061895535
        ]
      }
    },
    {
      "type": "Feature",
      "properties": {
        "norad_id": 33881,
        "name": "IRIDIUM 33 DEB",
        "group": "iridium-33-debris",
        "lat": -66.69424649771321,
        "lon": -68.08031250416843,
        "alt_km": 715.9591178208075,
        "timestamp": "2025-12-20T05:41:50.415737+00:00",
        "meta_object_name": "IRIDIUM 33 DEB",
        "meta_object_id": "1997-051BA",
        "meta_epoch": "2025-12-18T18:38:37.341312",
        "meta_mean_motion": 14.56678227,
        "meta_eccentricity": 0.00614608,
        "meta_inclination": 86.3861,
        "meta_ra_of_asc_node": 104.1184,
        "meta_arg_of_pericenter": 155.2089,
        "meta_mean_anomaly": 356.6087,
        "meta_ephemeris_type": 0,
        "meta_classification_type": "U",
        "meta_norad_cat_id": 33881,
        "meta_element_set_no": 999,
        "meta_rev_at_epoch": 87588,
        "meta_bstar": 0.0015458281,
        "meta_mean_motion_dot": 7.103e-05,
        "meta_mean_motion_ddot": 0,
        "tle_line1": "1 33881U 97051BA  25352.77682108  .00007103  00000+0  15458-2 0  9996",
        "tle_line2": "2 33881  86.3861 104.1184 0061460 155.2089 356.6087 14.56678227875882"
      },
      "geometry": {
        "type": "Point",
        "coordinates": [
          -68.08031250416843,
          -66.69424649771321
        ]
      }
    },
    {
      "type": "Feature",
      "properties": {
        "norad_id": 33884,
        "name": "IRIDIUM 33 DEB",
        "group": "iridium-33-debris",
        "lat": 35.01976508239329,
        "lon": 8.984066296661325,
        "alt_km": 635.9432921159105,
        "timestamp": "2025-12-20T05:41:50.415748+00:00",
        "meta_object_name": "IRIDIUM 33 DEB",
        "meta_object_id": "1997-051BD",
        "meta_epoch": "2025-12-19T06:51:00.174816",
        "meta_mean_motion": 14.77551072,
        "meta_eccentricity": 0.0009195,
        "meta_inclination": 86.3691,
        "meta_ra_of_asc_node": 6.8636,
        "meta_arg_of_pericenter": 298.3453,
        "meta_mean_anomaly": 76.3453,
        "meta_ephemeris_type": 0,
        "meta_classification_type": "U",
        "meta_norad_cat_id": 33884,
        "meta_element_set_no": 999,
        "meta_rev_at_epoch": 88944,
        "meta_bstar": 0.001004,
        "meta_mean_motion_dot": 7.196e-05,
        "meta_mean_motion_ddot": 0,
        "tle_line1": "1 33884U 97051BD  25353.28541869  .00007196  00000+0  10040-2 0  9998",
        "tle_line2": "2 33884  86.3691   6.8636 0009195 298.3453  76.3453 14.77551072889448"
      },
      "geometry": {
        "type": "Point",
        "coordinates": [
          8.984066296661325,
          35.01976508239329
        ]
      }
    }
  ]
}